A/2025 S3,e,103.5642,36.7316,71.1300,216.2963,0.0003098,0.98962332,0.0000,06/25.0973/2026,2000,g 15.0,2.0
# From MPEC 2026-K60
C/2025 T1 (ATLAS),e,123.4350,140.4953,114.1402,3851,0.0000041,0.99971209,0.0000,12/02.3821/2025,2000,g 14.7,4.0
# From MPEC 2026-K60
P/2025 U1 (Hogan),e,23.8296,234.9061,264.0668,5.894849,0.0688645,0.29328512,7.7191,07/16.0/2026,2000,g 11.7,4.0
# From MPEC 2026-GD5
P/2025 UX109 (Ye),e,3.1815,197.9821,276.1147,3.804163,0.1328359,0.32445014,44.6097,07/16.0/2026,2000,g 13.7,4.0
# From MPC191592
C/2025 V1 (Borisov),h,11/16.5500/2025,112.7035,91.8737,47.5686,1.007762,0.462642,2000,16.3,4.0
# From MPEC 2026-N12
C/2025 V2 (Rankin),h,03/23.0535/2027,37.3046,138.0867,102.7835,1.000134,1.950324,2000,9.0,4.0
# From MPC191592
C/2025 W1 (Sankovich),e,79.8007,95.8907,250.6460,6364,0.0000019,0.99934462,0.0000,02/17.7313/2025,2000,g  9.7,4.0
# From MPC191592
C/2025 W2 (ATLAS),e,94.7091,90.8466,41.0416,26.96048,0.0070406,0.94609231,1.5501,07/16.0/2026,2000,g 17.9,4.0
# From MPC194197
P/2025 W3 (Kresken),e,9.7405,60.0022,311.4211,2.546794,0.2425009,0.18111690,117.7930,07/16.0/2026,2000,g 17.2,4.0
# From MPC194197
P/2025 W4 (PANSTARRS),e,1.2976,237.0811,172.2854,2.579655,0.2378820,0.21160519,67.6895,07/16.0/2026,2000,g 17.5,4.0
# From MPEC 2026-KB8
C/2025 X1 (PANSTARRS),e,36.9537,95.6301,85.6955,33.67905,0.0050427,0.86140283,359.2519,07/16.0/2026,2000,g 10.2,4.0
# From MPEC 2026-N12
C/2025 Y1 (ATLAS),e,14.5564,166.5504,124.2914,8892,0.0000012,0.99970737,0.0000,10/14.0068/2027,2000,g  6.3,4.0
# From MPEC 2026-N12
P/2025 Y2 (PANSTARRS),e,16.5874,177.4771,344.7248,4.017110,0.1224147,0.24149081,27.0355,07/16.0/2026,2000,g 13.3,4.0
# From MPC194197
C/2025 Y3 (PANSTARRS),h,01/13.7123/2026,89.5483,272.9672,219.3884,1.000612,2.227392,2000,17.0,4.0
# From MPC194197
C/2026 A1 (MAPS),e,144.4987,7.9363,86.3807,172.2726,0.0004359,0.99996674,0.0000,04/04.6004/2026,2000,g 15.6,4.0
# From MPEC 2026-N12
C/2026 A2 (Bok),e,82.3058,206.5886,155.9356,824.6555,0.0000416,0.99765013,0.0000,12/22.3525/2026,2000,g 10.7,4.0
# From MPEC 2026-GD5
C/2026 A3 (PANSTARRS),h,09/28.3554/2027,157.4334,307.0044,238.7966,1.006274,4.813996,2000,9.0,4.0
# From MPEC 2026-N12
C/2026 AZ17 (Bok),e,36.2337,149.9745,146.9110,64.91993,0.0018842,0.96191182,359.7546,07/16.0/2026,2000,g 12.2,4.0
# From MPEC 2026-N12
C/2026 B2 (Sun-Gao),e,59.5800,234.6364,47.2983,512.1545,0.0000850,0.99749247,0.0000,01/10.1146/2026,2000,g  9.7,4.0
# From MPEC 2026-L50
C/2026 B3 (PANSTARRS),e,100.8350,346.2549,205.2254,1200,0.0000237,0.99515461,0.0000,05/05.2578/2027,2000,g  7.7,4.0
# From MPEC 2026-N12
C/2026 C1 (Tsuchinshan),e,99.5826,3.6208,310.7195,20103,0.0000003,0.99994268,0.0000,11/06.9343/2028,2000,g  4.4,4.0
# From MPC194198
P/2026 C2 (PANSTARRS),e,7.4013,190.5601,11.0283,3.552011,0.1472287,0.31424465,359.1271,07/16.0/2026,2000,g 14.9,4.0
# From MPEC 2026-L50
A/2026 E1,e,108.1822,188.3166,344.8445,386.2656,0.0001298,0.99248669,0.0000,05/13.5647/2026,2000,g 12.0,2.0
# From MPEC 2026-K60
C/2026 H1 (PANSTARRS),h,06/13.5129/2026,115.5936,178.7278,349.6529,1.000730,6.083961,2000,9.0,4.0
# From MPEC 2026-N12
C/2026 H2 (Leonard),h,03/17.2821/2026,148.6500,5.4586,111.5452,1.001842,4.546412,2000,10.1,4.0
# From MPEC 2026-K33
C/2026 H3 (Bok),h,05/22.9674/2026,142.5671,352.4974,98.4928,1.003329,7.728231,2000,8.9,4.0
# From MPEC 2026-N12
C/2026 J1 (PANSTARRS),e,73.1158,100.3559,129.5210,25.51626,0.0076468,0.90109314,0.1196,07/16.0/2026,2000,g 14.1,4.0
# From MPEC 2026-N12
C/2026 L1 (PANSTARRS),e,67.2606,130.5046,200.5690,735.6324,0.0000494,0.99336600,0.0000,04/11.2456/2027,2000,g  9.2,4.0
# From MPEC 2026-N12
C/2026 L2 (PANSTARRS),e,55.5346,283.6646,359.9767,3216,0.0000054,0.99894337,0.0000,04/09.7261/2026,2000,g 13.3,4.0
# From MPEC 2026-N90
C/2026 M3 (MASTER),h,12/25.1564/2026,94.0369,282.5017,49.4138,1.009936,12.088658,2000,3.9,4.0
# From MPC191592
1P/Halley,e,162.1831,59.3268,112.2268,17.85849,0.0130598,0.96801776,192.7897,07/16.0/2026,2000,g  5.5,3.2
# From MPC191592
2P/Encke,e,11.3479,334.0194,187.2854,2.217770,0.2984209,0.84730487,297.5617,07/16.0/2026,2000,g 11.5,6.0
# From AJ 76, 1135
3D-A/Biela,e,7.2146,276.6846,192.1527,3.552357,0.1472072,0.76706855,86.9789,07/16.0/2026,2000,g 11.0,6.0
# From AJ 76, 1135
3D-B/Biela,e,7.8791,276.2036,192.2718,3.541402,0.1478908,0.76782455,56.6322,07/16.0/2026,2000,g 11.0,6.0
# From MPC191593
4P/Faye,e,7.9983,192.8866,207.1629,3.831184,0.1314331,0.57581068,232.8464,07/16.0/2026,2000,g  8.0,6.0
# From MPC191593
6P/d'Arrest,e,19.5072,138.9580,178.0359,3.497316,0.1506960,0.61252281,265.8374,07/16.0/2026,2000,g  7.5,16.0
# From MPC194198
7P/Pons-Winnecke,e,21.8620,92.6416,174.3975,3.336105,0.1617501,0.66014869,294.3651,07/16.0/2026,2000,g 10.0,6.0
# From MPC191593
8P/Tuttle,e,54.9768,270.1868,207.4804,5.706772,0.0722967,0.82074954,128.8116,07/16.0/2026,2000,g  8.0,8.0
# From MPC191593
9P/Tempel,e,10.4834,66.8548,184.5699,3.304508,0.1640756,0.46551132,265.5675,07/16.0/2026,2000,g  5.5,10.0
# From MPEC 2026-N12
10P/Tempel,e,12.0273,117.7976,195.4676,3.065065,0.1836727,0.53745245,356.8565,07/16.0/2026,2000,g  5.0,10.0
# From MPC191593
11P/Tempel-Swift-LINEAR,e,14.4305,238.8516,168.0707,3.282246,0.1657476,0.57728443,340.6176,07/16.0/2026,2000,g 17.0,4.0
# From MPC191593
12P/Pons-Brooks,e,74.1574,255.8656,199.0318,17.27406,0.0137282,0.95474238,11.1995,07/16.0/2026,2000,g  5.0,6.0
# From MPC191593
13P/Olbers,e,44.6532,85.8405,64.4369,16.95131,0.0141221,0.93066279,10.5322,07/16.0/2026,2000,g  5.0,6.0
# From MPC191594
14P/Wolf,e,27.9193,202.0082,159.2068,4.255194,0.1122859,0.35642679,352.6970,07/16.0/2026,2000,g  5.5,12.0
# From MPC191594
15P/Finlay,e,6.7841,13.7315,347.8577,3.512169,0.1497411,0.71580122,274.0659,07/16.0/2026,2000,g 12.0,4.0
# From MPC191594
16P/Brooks,e,3.0099,138.8076,245.3657,3.663307,0.1405705,0.48517546,269.2916,07/16.0/2026,2000,g  7.5,10.0
# From MPC191594
17P/Holmes,e,19.0040,326.5957,24.5700,3.643201,0.1417357,0.42602811,279.9520,07/16.0/2026,2000,g 10.0,6.0
# From QJ 19, 80
18D/Perrine-Mrkos,e,17.664,158.451,238.162,3.87833,0.129044,0.5893658,88.528,07/16.0/2026,2000,g 16.0,4.0
# From MPC191594
19P/Borrelly,e,29.3040,74.2147,352.0185,3.608896,0.1437615,0.63748341,233.5473,07/16.0/2026,2000,g  4.5,10.0
# From MPC191594
21P/Giacobini-Zinner,e,32.0698,195.2755,172.9361,3.489724,0.1511881,0.71115480,72.2149,07/16.0/2026,2000,g  9.0,6.0
# From MPC191594
22P/Kopff,e,5.2809,119.9362,165.8599,3.292701,0.1649589,0.59711042,243.3635,07/16.0/2026,2000,g  3.0,10.4
# From MPEC 2026-N12
24P/Schaumasse,e,11.5018,78.2697,58.4885,4.057625,0.1205858,0.70819535,22.7495,07/16.0/2026,2000,g  6.5,14.0
# From MPC191594
26P/Grigg-Skjellerup,e,22.4511,211.5258,2.1078,3.013634,0.1883945,0.64095364,175.8758,07/16.0/2026,2000,g 12.0,16.0
# From MPC194198
28P/Neujmin,e,14.2863,346.4281,347.4028,6.976292,0.0534893,0.77233758,104.5956,07/16.0/2026,2000,g  8.5,6.0
# From MPEC 2026-N12
29P/Schwassmann-Wachmann,e,9.3551,312.4007,51.4277,6.058075,0.0661001,0.04288904,174.7669,07/16.0/2026,2000,g  4.0,4.0
# From MPC191595
30P/Reinmuth,e,8.0536,117.2291,9.5664,3.737325,0.1364152,0.51441736,95.1725,07/16.0/2026,2000,g  9.5,6.0
# From MPC191595
31P/Schwassmann-Wachmann,e,4.5498,114.1111,18.0783,4.228550,0.1133488,0.19373060,290.5819,07/16.0/2026,2000,g  5.0,8.0
# From MPC191595
32P/ComasSola,e,9.9162,54.5310,54.7674,4.557042,0.1013163,0.55523878,82.6993,07/16.0/2026,2000,g  6.5,8.0
# From MPC191595
33P/Daniel,e,22.2926,66.2829,20.2764,4.091678,0.1190836,0.45170956,72.8993,07/16.0/2026,2000,g 10.0,12.0
# From MPEC 2026-M30
36P/Whipple,e,9.9434,181.8046,201.1778,4.142908,0.1168816,0.26764919,261.4204,07/16.0/2026,2000,g  8.5,6.0
# From MPC191595
37P/Forbes,e,8.9480,314.5395,330.0822,3.461589,0.1530350,0.53228916,98.3969,07/16.0/2026,2000,g 10.5,4.8
# From MPC191596
39P/Oterma,e,1.7212,289.0625,119.7897,6.980261,0.0534437,0.16291704,52.9157,07/16.0/2026,2000,g  7.0,6.0
# From MPEC 2026-N12
40P/Vaisala,e,11.6404,128.8994,52.0729,4.945592,0.0896142,0.63120546,22.0408,07/16.0/2026,2000,g  5.5,12.0
# From MPC191596
41P/Tuttle-Giacobini-Kresak,e,9.2166,140.9773,62.2048,3.087372,0.1816857,0.65998976,254.6805,07/16.0/2026,2000,g 10.0,16.0
# From MPC191596
42P/Neujmin,e,3.9886,150.1552,147.1116,4.879144,0.0914510,0.58403462,16.6525,07/16.0/2026,2000,g 13.0,6.0
# From MPEC 2026-L50
43P/Wolf-Harrington,e,9.3302,243.9710,223.7685,4.326816,0.1095094,0.43545547,37.8404,07/16.0/2026,2000,g  8.0,6.0
# From MPC191596
44P/Reinmuth,e,5.8956,286.4178,57.9458,3.687881,0.1391678,0.42677310,215.2710,07/16.0/2026,2000,g  8.3,6.0
# From MPC191596
45P/Honda-Mrkos-Pajdusakova,e,4.3240,87.6661,327.9675,3.056980,0.1844018,0.81739001,284.0671,07/16.0/2026,2000,g 13.5,8.0
# From MPEC 2026-GD5
47P/Ashbrook-Jackson,e,13.0399,356.8817,357.9147,4.115255,0.1180617,0.31778240,30.8166,07/16.0/2026,2000,g  1.0,11.2
# From MPEC 2026-N12
48P/Johnson,e,12.2011,110.0648,216.8809,3.501617,0.1504184,0.42635196,75.2448,07/16.0/2026,2000,g 10.0,6.0
# From MPEC 2026-N12
49P/Arend-Rigaux,e,19.0597,118.7904,332.9433,3.569452,0.1461510,0.59884645,67.4382,07/16.0/2026,2000,g 11.3,4.4
# From MPC191597
50P/Arend,e,19.1000,355.1442,49.2943,4.085264,0.1193641,0.52942594,94.8510,07/16.0/2026,2000,g  9.5,6.0
# From MPC191597
51P/Harrington,e,5.4263,83.6569,269.1973,3.705328,0.1381860,0.54269194,191.4049,07/16.0/2026,2000,g 10.0,8.0
# From NK 3014
51P-A/Harrington,e,5.4264,83.6587,269.1756,3.706560,0.1381171,0.54288683,190.9524,07/16.0/2026,2000,g 10.0,8.0
# From MPC191597
52P/Harrington-Abell,e,10.2422,336.7373,139.6617,3.861507,0.1298879,0.54120524,226.3661,07/16.0/2026,2000,g 13.5,6.0
# From MPC194199
53P/VanBiesbroeck,e,6.6097,148.8481,134.3652,5.439773,0.0776842,0.55082791,290.6678,07/16.0/2026,2000,g  7.7,4.8
# From MPC191597
54P/deVico-Swift-NEAT,e,6.1130,357.9727,2.6000,3.790130,0.1335743,0.43138902,90.5406,07/16.0/2026,2000,g 10.0,6.0
# From MPC191597
56P/Slaughter-Burnham,e,8.1556,345.8628,44.2351,5.062718,0.0865224,0.50804158,314.8604,07/16.0/2026,2000,g  8.5,6.0
# From MPC191597
